{
"type": "FeatureCollection",
"name": "OLT",
"crs": { "type": "name", "properties": { "name": "urn:ogc:def:crs:EPSG::32617" } },
"features": [
{ "type": "Feature", "properties": { "ID": "104", "Name": "Central_Manitoulin", "Type": "FX-8", "NoOfAddr": "1696", "Structure": "Cabinet", "CabinetSz": "72\"H x 30\"W x 36\"D", "Owner": "Rock Networks", "NoOfPON": "99", "NoOfFDH": "17", "Status": "Installed", "Placement": "Outdoor", "Location": "29 Nixon St, Mindemoya, ON P0P 1S0, Canada", "Permit_ID": "MC-P10000010", "Lot_No": null, "FSA_No": "CENTRAL MANITOULIN FSA9", "Subdiv": "1", "Comments": "Procurement in progress", "PermApplOn": null, "PermApprOn": null, "Contractor": null, "DtAsgCnstr": null, "DtInstald": null, "layer": "olt", "path": "/Users/sandeepreddypailla/Downloads/Merge July 17th/PomeGran_Rock _SD1_OLT4_Central Manitoulin_HLD_v1.4/PomeGran_Rock _SD1_OLT4_Central Manitoulin_HLD/olt.shp", "ConStartDt": null }, "geometry": { "type": "MultiPoint", "coordinates": [ [ 408765.486412720405497, 5064759.130227613262832 ] ] } },
{ "type": "Feature", "properties": { "ID": "105", "Name": "Gore Bay", "Type": "FX-8", "NoOfAddr": "1440", "Structure": "Cabinet", "CabinetSz": "72\"H x 30\"W x 36\"D", "Owner": "Rock Networks", "NoOfPON": "90", "NoOfFDH": "10", "Status": "Completed-Live", "Placement": "Outdoor", "Location": "Opp # 21 Hall St, Gore Bay, ON P0P 1H0, Canada", "Permit_ID": "MC-P1000006", "Lot_No": null, "FSA_No": "GORE BAY FSA15", "Subdiv": "1", "Comments": null, "PermApplOn": null, "PermApprOn": null, "Contractor": null, "DtAsgCnstr": null, "DtInstald": null, "layer": "olt", "path": "/Users/sandeepreddypailla/Downloads/Merge July 17th/PomeGran_Rock _SD1_OLT5_Gore Bay_HLD_v1.4/PomeGran_Rock _SD1_OLT5_Gore Bay_HLD_v1.4/olt.shp", "ConStartDt": null }, "geometry": { "type": "MultiPoint", "coordinates": [ [ 386704.612601310946047, 5085272.59657592792064 ] ] } },
{ "type": "Feature", "properties": { "ID": "102", "Name": "Assiginack", "Type": "FX-8", "NoOfAddr": "2164", "Structure": "Cabinet", "CabinetSz": "72\"H x 30\"W x 36\"D", "Owner": "Rock Networks", "NoOfPON": "120", "NoOfFDH": "18", "Status": "WIP", "Placement": "Outdoor", "Location": "73 Nelson St, Manitowaning, ON P0P 1N0, Canada", "Permit_ID": "MC-P1000009", "Lot_No": null, "FSA_No": "ASSIGINACK FSA1", "Subdiv": "1", "Comments": "Procurement in progress", "PermApplOn": null, "PermApprOn": null, "Contractor": null, "DtAsgCnstr": null, "DtInstald": null, "layer": "olt", "path": "/Users/sandeepreddypailla/Downloads/Merge July 17th/PomeGran_Rock _SD1_OLT2-Assiginack_HLD_v1.3/PomeGran_Rock _SD1_OLT2-Assiginack_HLD_v1.3/olt.shp", "ConStartDt": null }, "geometry": { "type": "MultiPoint", "coordinates": [ [ 436989.283201764454134, 5065842.075499096885324 ] ] } },
{ "type": "Feature", "properties": { "ID": "107", "Name": "Tehkummah", "Type": "FX-4", "NoOfAddr": "675", "Structure": "Cabinet", "CabinetSz": "72\"H x 30\"W x 36\"D", "Owner": "Rock Networks", "NoOfPON": "46", "NoOfFDH": "6", "Status": "Installed", "Placement": "Outdoor", "Location": "275 Townline Rd W, Tehkummah, ON P0P 2C0, Canada", "Permit_ID": "MC-P10000011", "Lot_No": null, "FSA_No": "TEHKUMMAH FSA36", "Subdiv": "1", "Comments": "Procurement in progress", "PermApplOn": null, "PermApprOn": null, "Contractor": null, "DtAsgCnstr": null, "DtInstald": null, "layer": "olt", "path": "/Users/sandeepreddypailla/Downloads/Merge July 17th/PomeGran_Rock _SD1_OLT7_Tehkummah_HLD_v1.4/PomeGran_Rock _SD1_OLT7_Tehkummah_HLD/olt.shp", "ConStartDt": null }, "geometry": { "type": "MultiPoint", "coordinates": [ [ 421631.712918495177291, 5058359.166255746036768 ] ] } },
{ "type": "Feature", "properties": { "ID": "403", "Name": "St Joseph OLT", "Type": "FX-8", "NoOfAddr": "1608( 215 Residential Drops Provisioned)(157 Business Units Provisioned)", "Structure": "CABINET", "CabinetSz": "73.5\"H x  18.70\"W x 33.07\"D", "Owner": "Rock Networks", "NoOfPON": "89", "NoOfFDH": null, "Status": "WIP", "Placement": "Indoor", "Location": "\"1586 HILTON RD\", HILTON BEACH, ONTARIO, P0R 1G0 46°13'17.6\"N 83°58'42.9\"W", "Permit_ID": "MC-P4000061", "Lot_No": "LOT15", "FSA_No": "JOCELYN FSA19", "Subdiv": "4", "Comments": "Civil works to be scheduled, Cabinet assembly in progress", "PermApplOn": null, "PermApprOn": null, "Contractor": null, "DtAsgCnstr": null, "DtInstald": null, "layer": "olt", "path": "/Users/sandeepreddypailla/Downloads/Merge July 17th/PomeGran_Rock_St. Joseph_HLD_v1.5/PomeGran_Rock_St. Joseph_HLD_v1.5/olt.shp", "ConStartDt": null }, "geometry": { "type": "MultiPoint", "coordinates": [ [ 270287.336572763160802, 5122977.434250338934362 ] ] } },
{ "type": "Feature", "properties": { "ID": "402", "Name": "Desbarats OLT", "Type": "FX-8", "NoOfAddr": "2006 (1658 Residential,184 Residential Drop provisioned & 164Commercial Drop provisioned)", "Structure": "Cabinet", "CabinetSz": "72\"H x 30\"W x 36\"D", "Owner": "Rock Networks", "NoOfPON": "99", "NoOfFDH": null, "Status": "Completed-Live", "Placement": "Outdoor", "Location": "Opp to \"4 Margaret Street\", Desbarats, Ontario.46°20'48.0\"N 83°55'29.5\"W", "Permit_ID": "MC-P4000060", "Lot_No": "LOT_01", "FSA_No": "JOHNSON FSA20", "Subdiv": "4", "Comments": null, "PermApplOn": null, "PermApprOn": null, "Contractor": null, "DtAsgCnstr": null, "DtInstald": null, "layer": "olt", "path": "/Users/sandeepreddypailla/Downloads/Merge July 17th/PomeGran_Rock_Desbarats_HLD_v1.9/PomeGran_Rock_Desbarats_HLD_v1.9/olt.shp", "ConStartDt": null }, "geometry": { "type": "MultiPoint", "coordinates": [ [ 274944.270826168474741, 5136723.759018139913678 ] ] } },
{ "type": "Feature", "properties": { "ID": "106", "Name": "Silver_Water", "Type": "FX-4", "NoOfAddr": "552", "Structure": "Cabinet", "CabinetSz": "72\"H x 30\"W x 36\"D", "Owner": "Rock Networks", "NoOfPON": "36", "NoOfFDH": "4", "Status": "WIP", "Placement": "Outdoor", "Location": "374 KEMP LAKE RD,Manitoulin, West Part, ON P0P 1Y0, Canada", "Permit_ID": "MC-P1000007", "Lot_No": null, "FSA_No": "WEST MANITOULIN UNORGANIZED FSA40", "Subdiv": "1", "Comments": "Procurement in progress", "PermApplOn": null, "PermApprOn": null, "Contractor": null, "DtAsgCnstr": null, "DtInstald": null, "layer": "olt", "path": "/Users/sandeepreddypailla/Downloads/Merge July 17th/PomeGran_Rock _SD1_OLT6_Silver_Water_HLD_v1.3/PomeGran_Rock _SD1_OLT6_Silver_Water_HLD/olt.shp", "ConStartDt": null }, "geometry": { "type": "MultiPoint", "coordinates": [ [ 354247.110373796720523, 5082075.533250906504691 ] ] } },
{ "type": "Feature", "properties": { "ID": "101", "Name": "Little Current", "Type": "FX-8", "NoOfAddr": "2237", "Structure": "Cabinet", "CabinetSz": "72\"H x 30\"W x 36\"D", "Owner": "Rock Networks", "NoOfPON": "122", "NoOfFDH": "16", "Status": "Installed", "Placement": "Outdoor", "Location": "33 HAYWARD STREET, Little Current, ON P0P 1K0, Canada", "Permit_ID": "MC-P1000105", "Lot_No": null, "FSA_No": "Northeastern Manitoulin and the Islands FSA25", "Subdiv": "1", "Comments": "Procurement in progress", "PermApplOn": null, "PermApprOn": null, "Contractor": null, "DtAsgCnstr": null, "DtInstald": null, "layer": "olt", "path": "/Users/sandeepreddypailla/Downloads/Merge July 17th/PomeGran_Rock _SD1_OLT1_LittleCurret_HLD_v1.3/PomeGran_Rock_LittleCurret-OLT1_HLD_v1.3/olt.shp", "ConStartDt": null }, "geometry": { "type": "MultiPoint", "coordinates": [ [ 427637.742741372378077, 5092144.924501902423799 ] ] } },
{ "type": "Feature", "properties": { "ID": "103", "Name": "M'Chigeeng", "Type": "FX-8", "NoOfAddr": "1927", "Structure": "Cabinet", "CabinetSz": "72\"H x 30\"W x 36\"D", "Owner": "Rock networks", "NoOfPON": null, "NoOfFDH": "15", "Status": "Installed", "Placement": "Outdoor", "Location": "112-A  Bay St, M'Chigeeng, ON P0P 1G0, Canada", "Permit_ID": "MC-P1000005", "Lot_No": null, "FSA_No": "BILLINGS FSA5", "Subdiv": "1", "Comments": null, "PermApplOn": null, "PermApprOn": null, "Contractor": null, "DtAsgCnstr": null, "DtInstald": null, "layer": "olt", "path": "/Users/sandeepreddypailla/Downloads/Merge July 17th/PomeGran_Rock_M'Chigeeng-OLT3_HLD_v1.5/PomeGran_Rock_M'Chigeeng-OLT3_HLD_v1.5/olt.shp", "ConStartDt": null }, "geometry": { "type": "MultiPoint", "coordinates": [ [ 409806.852618511416949, 5076077.039625810459256 ] ] } },
{ "type": "Feature", "properties": { "ID": "401", "Name": "Echo bay OLT", "Type": "FX-8", "NoOfAddr": "1468", "Structure": "Cabinet", "CabinetSz": "73.5\"H x  33.07\"D x 18.70\"W", "Owner": "Rock Networks", "NoOfPON": "72", "NoOfFDH": null, "Status": "Completed-Live", "Placement": "Outdoor", "Location": "Side of # 52 The Dr, Echo Bay, ON P0S 1C0, Canada,Location: 46.486289, -84.065549", "Permit_ID": "MC-P4000066", "Lot_No": "LOT_1", "FSA_No": "MACDONALD, MEREDITH AND ABERDEEN ADDITIONAL FSA22", "Subdiv": "4", "Comments": null, "PermApplOn": null, "PermApprOn": null, "Contractor": null, "DtAsgCnstr": null, "DtInstald": null, "layer": "olt", "path": "/Users/sandeepreddypailla/Downloads/Merge July 17th/PomeGran_Rock_Echobay_HLD_v1.9/PomeGran_Rock_Echobay_HLD_v1.9/olt.shp", "ConStartDt": null }, "geometry": { "type": "MultiPoint", "coordinates": [ [ 264719.239503945747856, 5152650.827077586203814 ] ] } },
{ "type": "Feature", "properties": { "ID": "202", "Name": "Blind River_FX_4_HUB_NNI", "Type": "FX-4", "NoOfAddr": "880", "Structure": "Cabinet", "CabinetSz": null, "Owner": "Rock Networks", "NoOfPON": null, "NoOfFDH": "20", "Status": "WIP", "Placement": "Outdoor", "Location": "47, Murray Street Blind River", "Permit_ID": null, "Lot_No": null, "FSA_No": "BLIND RIVER FSA6", "Subdiv": "2", "Comments": "Procurement in progress", "PermApplOn": null, "PermApprOn": null, "Contractor": null, "DtAsgCnstr": null, "DtInstald": null, "layer": "OLT_sub2", "path": "/Users/sandeepreddypailla/Downloads/Merge July 17th/Extraction 3/OLT_sub2.shp", "ConStartDt": null }, "geometry": { "type": "MultiPoint", "coordinates": [ [ 349599.239591548510361, 5116401.391698689199984 ] ] } },
{ "type": "Feature", "properties": { "ID": "201", "Name": "Huron Shores", "Type": "FX-4", "NoOfAddr": "1496", "Structure": "Cabinet", "CabinetSz": null, "Owner": "Rock Networks", "NoOfPON": null, "NoOfFDH": "31", "Status": "WIP", "Placement": "Outdoor", "Location": "14100, Highway 17, Huron Shores", "Permit_ID": null, "Lot_No": null, "FSA_No": "HURON SHORES FSA18", "Subdiv": "2", "Comments": "Procurement in progress", "PermApplOn": null, "PermApprOn": null, "Contractor": null, "DtAsgCnstr": null, "DtInstald": null, "layer": "OLT_sub2", "path": "/Users/sandeepreddypailla/Downloads/Merge July 17th/Extraction 3/OLT_sub2.shp", "ConStartDt": null }, "geometry": { "type": "MultiPoint", "coordinates": [ [ 310159.339803812094033, 5126702.255128180608153 ] ] } },
{ "type": "Feature", "properties": { "ID": "301", "Name": "Elliot Lake", "Type": "FX-4", "NoOfAddr": "312", "Structure": "Cabinet", "CabinetSz": null, "Owner": "Rock Networks", "NoOfPON": "29", "NoOfFDH": "7", "Status": "WIP", "Placement": "Outdoor", "Location": "5, Timber Road, Elliot Lake", "Permit_ID": "FS11-OLT1-UG", "Lot_No": null, "FSA_No": "ELLIOT LAKE", "Subdiv": "3", "Comments": "Procurement in progress", "PermApplOn": null, "PermApprOn": null, "Contractor": null, "DtAsgCnstr": null, "DtInstald": null, "layer": null, "path": null, "ConStartDt": null }, "geometry": { "type": "MultiPoint", "coordinates": [ [ 371999.289106970652938, 5139946.170249341987073 ] ] } },
{ "type": "Feature", "properties": { "ID": "302", "Name": "Serpent River", "Type": "FX-4", "NoOfAddr": "503", "Structure": "Cabinet", "CabinetSz": null, "Owner": "Rock Networks", "NoOfPON": "55", "NoOfFDH": "13", "Status": "Installed", "Placement": "Outdoor", "Location": "1010, Handy Spot Rd, The North Shore", "Permit_ID": "FS37-OLT1-SERPENT RI", "Lot_No": null, "FSA_No": "THE NORTH SHORE", "Subdiv": "3", "Comments": "Procurement in progress", "PermApplOn": null, "PermApprOn": null, "Contractor": null, "DtAsgCnstr": null, "DtInstald": null, "layer": null, "path": null, "ConStartDt": null }, "geometry": { "type": "MultiPoint", "coordinates": [ [ 381345.583490420947783, 5118914.47420600336045 ] ] } },
{ "type": "Feature", "properties": { "ID": "303", "Name": "Massey", "Type": "FX-4", "NoOfAddr": "824", "Structure": "Cabinet", "CabinetSz": null, "Owner": "Rock Networks", "NoOfPON": "87", "NoOfFDH": "23", "Status": "Installed", "Placement": "Outdoor", "Location": "5, Hannah Rd, Sables-Spanish Rivers", "Permit_ID": "FS27-OLT1-UG", "Lot_No": null, "FSA_No": "SABLES-SPANISH RIVERS", "Subdiv": "3", "Comments": null, "PermApplOn": null, "PermApprOn": null, "Contractor": null, "DtAsgCnstr": null, "DtInstald": null, "layer": null, "path": null, "ConStartDt": null }, "geometry": { "type": "MultiPoint", "coordinates": [ [ 419395.173882673145272, 5118770.053702741861343 ] ] } },
{ "type": "Feature", "properties": { "ID": "501", "Name": "Espanola_FX_4_HUB_NNI", "Type": "FX-4", "NoOfAddr": "816", "Structure": "Cabinet", "CabinetSz": "72\"H x 30\"W x 36\"D", "Owner": "Rock Networks", "NoOfPON": "74", "NoOfFDH": "9", "Status": "Completed-Live", "Placement": "Outdoor", "Location": "598 SECOND AVENUE, Espanola", "Permit_ID": "FSA12-OLT1-MC", "Lot_No": null, "FSA_No": "ESPANOLA FSA12", "Subdiv": "5", "Comments": null, "PermApplOn": null, "PermApprOn": null, "Contractor": null, "DtAsgCnstr": null, "DtInstald": null, "layer": null, "path": null, "ConStartDt": null }, "geometry": { "type": "MultiPoint", "coordinates": [ [ 440267.595554401283152, 5122940.586560006253421 ] ] } },
{ "type": "Feature", "properties": { "ID": "502", "Name": "Lively_FX_4", "Type": "FX-4", "NoOfAddr": "1693", "Structure": "Cabinet", "CabinetSz": "72\"H x 30\"W x 36\"D", "Owner": "Rock Networks", "NoOfPON": "132", "NoOfFDH": "21", "Status": "Completed-Live", "Placement": "Outdoor", "Location": "493 ST POTHIER RD, Greater Sudbury", "Permit_ID": "FSA3-OLT2", "Lot_No": null, "FSA_No": "Lively FSA 44", "Subdiv": "5", "Comments": null, "PermApplOn": null, "PermApprOn": null, "Contractor": null, "DtAsgCnstr": null, "DtInstald": null, "layer": null, "path": null, "ConStartDt": null }, "geometry": { "type": "MultiPoint", "coordinates": [ [ 471794.244468579767272, 5134812.257690611295402 ] ] } }
]
}
